ORBCOMM FM05            
1 25117U 97084F   25227.63258180  .00001046  00000+0  33070-3 0  9991
2 25117  45.0150  82.6018 0002320 136.5354 223.5681 14.46087555449214
ORBCOMM FM06            
1 25118U 97084G   25227.62462038  .00001174  00000+0  36511-3 0  9995
2 25118  45.0142  82.3123 0001357 122.6065 266.8522 14.46228983450133
ORBCOMM FM07            
1 25119U 97084H   25227.63239350  .00001219  00000+0  37744-3 0  9995
2 25119  45.0138  83.0415 0003167 135.7385 224.3720 14.46233103450120
ORBCOMM FM03            
1 25158U 98007B   25227.32681369  .00000730  00000+0  30161-3 0  9994
2 25158 107.9677 257.1052 0044092 147.5475 212.8389 14.34612766432523
ORBCOMM FM04            
1 25159U 98007C   25227.37060025  .00000776  00000+0  31676-3 0  9992
2 25159 107.9664 260.4569 0039800 145.0739 215.3023 14.34858297432712
ORBCOMM FM17            
1 25413U 98046A   25227.56893384  .00000690  00000+0  28808-3 0  9999
2 25413  44.9957 337.3354 0003896 174.4988 185.5902 14.35186610411708
ORBCOMM FM18            
1 25414U 98046B   25227.44673113  .00000715  00000+0  27713-3 0  9995
2 25414  44.9918 253.7211 0006672 238.4016 121.6182 14.38674438412780
ORBCOMM FM19            
1 25415U 98046C   25227.28164178  .00000797  00000+0  30466-3 0  9993
2 25415  44.9931 256.5964 0005408 237.2812 221.8569 14.38486149412714
